start=new Date('2022-12-30T00:00:00.000Z').valueOf();
sats=[{"ECCENTRICITY":"0.00014270","EPOCH":"2022-12-29T09:51:18.946944","DECAY_DATE":null,"OBJECT_NAME":"STARLINK-2013","ELEMENT_SET_NO":"999","RCS_SIZE":"LARGE","BSTAR":"-0.00004559400000","OBJECT_ID":"2021-012S","APOAPSIS":"548.219","NORAD_CAT_ID":"47636","MEAN_MOTION_DDOT":"0.0000000000000","LAUNCH_DATE":"2021-02-16","SITE":"AFETR","TLE_LINE2":"2 47636  53.0546 247.2639 0001427  75.9914 284.1234 15.06394385104477","GP_ID":"221737839","REV_AT_EPOCH":"10447","TIME_SYSTEM":"UTC","COUNTRY_CODE":"US","FILE":"3725790","ARG_OF_PERICENTER":"75.9914","CLASSIFICATION_TYPE":"U","OBJECT_TYPE":"PAYLOAD","SEMIMAJOR_AXIS":"6925.366","MEAN_ANOMALY":"284.1234","MEAN_MOTION":"15.06394385","TLE_LINE1":"1 47636U 21012S   22363.41063596 -.00000960  00000-0 -45594-4 0  9990","MEAN_ELEMENT_THEORY":"SGP4","RA_OF_ASC_NODE":"247.2639","INCLINATION":"53.0546","MEAN_MOTION_DOT":"-0.00000960","PERIOD":"95.592","REF_FRAME":"TEME","PERIAPSIS":"546.243","CENTER_NAME":"EARTH","EPHEMERIS_TYPE":"0"},{"OBJECT_ID":"2021-012T","BSTAR":"-0.00003307100000","APOAPSIS":"548.021","OBJECT_NAME":"STARLINK-2014","DECAY_DATE":null,"RCS_SIZE":"LARGE","ELEMENT_SET_NO":"999","ECCENTRICITY":"0.00011680","EPOCH":"2022-12-29T17:06:33.295104","ARG_OF_PERICENTER":"100.5101","CLASSIFICATION_TYPE":"U","COUNTRY_CODE":"US","FILE":"3725850","GP_ID":"221743080","REV_AT_EPOCH":"10401","TIME_SYSTEM":"UTC","NORAD_CAT_ID":"47637","SITE":"AFETR","TLE_LINE2":"2 47637  53.0538 245.8963 0001168 100.5101 259.6019 15.06400460104018","MEAN_MOTION_DDOT":"0.0000000000000","LAUNCH_DATE":"2021-02-16","MEAN_MOTION_DOT":"-0.00000774","INCLINATION":"53.0538","TLE_LINE1":"1 47637U 21012T   22363.71288536 -.00000774  00000-0 -33071-4 0  9997","MEAN_ELEMENT_THEORY":"SGP4","RA_OF_ASC_NODE":"245.8963","MEAN_ANOMALY":"259.6019","MEAN_MOTION":"15.06400460","OBJECT_TYPE":"PAYLOAD","SEMIMAJOR_AXIS":"6925.347","EPHEMERIS_TYPE":"0","CENTER_NAME":"EARTH","PERIOD":"95.592","REF_FRAME":"TEME","PERIAPSIS":"546.403"},{"SITE":"AFETR","TLE_LINE2":"2 47638  53.0533 170.5946 0001362  82.5491 277.5652 15.06400485105061","MEAN_MOTION_DDOT":"0.0000000000000","LAUNCH_DATE":"2021-02-16","NORAD_CAT_ID":"47638","TIME_SYSTEM":"UTC","GP_ID":"221743076","REV_AT_EPOCH":"10506","FILE":"3725850","COUNTRY_CODE":"US","CLASSIFICATION_TYPE":"U","ARG_OF_PERICENTER":"82.5491","EPOCH":"2022-12-29T18:38:45.817152","ECCENTRICITY":"0.00013620","ELEMENT_SET_NO":"999","RCS_SIZE":"LARGE","OBJECT_NAME":"STARLINK-2015","DECAY_DATE":null,"APOAPSIS":"548.155","OBJECT_ID":"2021-012U","BSTAR":"0.00001363000000","PERIAPSIS":"546.269","REF_FRAME":"TEME","PERIOD":"95.592","CENTER_NAME":"EARTH","EPHEMERIS_TYPE":"0","SEMIMAJOR_AXIS":"6925.347","OBJECT_TYPE":"PAYLOAD","MEAN_MOTION":"15.06400485","MEAN_ANOMALY":"277.5652","MEAN_ELEMENT_THEORY":"SGP4","RA_OF_ASC_NODE":"170.5946","TLE_LINE1":"1 47638U 21012U   22363.77691918 -.00000078  00000-0  13630-4 0  9991","MEAN_MOTION_DOT":"-0.00000078","INCLINATION":"53.0533"},{"EPHEMERIS_TYPE":"0","CENTER_NAME":"EARTH","PERIAPSIS":"546.669","REF_FRAME":"TEME","PERIOD":"95.592","MEAN_MOTION_DOT":"0.00001414","INCLINATION":"53.0561","MEAN_ELEMENT_THEORY":"SGP4","RA_OF_ASC_NODE":"246.0051","TLE_LINE1":"1 47639U 21012V   22363.69075442  .00001414  00000-0  11377-3 0  9990","MEAN_MOTION":"15.06404742","MEAN_ANOMALY":"255.6267","SEMIMAJOR_AXIS":"6925.334","OBJECT_TYPE":"PAYLOAD","CLASSIFICATION_TYPE":"U","ARG_OF_PERICENTER":"104.4807","FILE":"3725850","COUNTRY_CODE":"US","TIME_SYSTEM":"UTC","REV_AT_EPOCH":"10400","GP_ID":"221742908","TLE_LINE2":"2 47639  53.0561 246.0051 0000766 104.4807 255.6267 15.06404742104003","SITE":"AFETR","MEAN_MOTION_DDOT":"0.0000000000000","LAUNCH_DATE":"2021-02-16","NORAD_CAT_ID":"47639","APOAPSIS":"547.730","OBJECT_ID":"2021-012V","BSTAR":"0.00011377000000","RCS_SIZE":"LARGE","ELEMENT_SET_NO":"999","OBJECT_NAME":"STARLINK-2016","DECAY_DATE":null,"EPOCH":"2022-12-29T16:34:41.181888","ECCENTRICITY":"0.00007660"},{"MEAN_ELEMENT_THEORY":"SGP4","RA_OF_ASC_NODE":"265.7203","TLE_LINE1":"1 47640U 21012W   22363.75158639 -.00006787  00000-0 -43753-3 0  9992","INCLINATION":"53.0547","MEAN_MOTION_DOT":"-0.00006787","SEMIMAJOR_AXIS":"6925.446","OBJECT_TYPE":"PAYLOAD","MEAN_MOTION":"15.06368307","MEAN_ANOMALY":"246.0239","CENTER_NAME":"EARTH","EPHEMERIS_TYPE":"0","PERIAPSIS":"546.186","REF_FRAME":"TEME","PERIOD":"95.594","APOAPSIS":"548.435","BSTAR":"-0.00043753000000","OBJECT_ID":"2021-012W","EPOCH":"2022-12-29T18:02:17.064096","ECCENTRICITY":"0.00016240","ELEMENT_SET_NO":"999","RCS_SIZE":"LARGE","DECAY_DATE":null,"OBJECT_NAME":"STARLINK-2018","FILE":"3725852","COUNTRY_CODE":"US","CLASSIFICATION_TYPE":"U","ARG_OF_PERICENTER":"114.0920","LAUNCH_DATE":"2021-02-16","MEAN_MOTION_DDOT":"0.0000000000000","SITE":"AFETR","TLE_LINE2":"2 47640  53.0547 265.7203 0001624 114.0920 246.0239 15.06368307103731","NORAD_CAT_ID":"47640","TIME_SYSTEM":"UTC","GP_ID":"221742909","REV_AT_EPOCH":"10373"},{"GP_ID":"221738090","REV_AT_EPOCH":"10549","TIME_SYSTEM":"UTC","NORAD_CAT_ID":"47641","MEAN_MOTION_DDOT":"0.0000000000000","LAUNCH_DATE":"2021-02-16","TLE_LINE2":"2 47641  53.0526 172.7522 0001402  86.9379 273.1770 15.06388089105494","SITE":"AFETR","ARG_OF_PERICENTER":"86.9379","CLASSIFICATION_TYPE":"U","COUNTRY_CODE":"US","FILE":"3725790","DECAY_DATE":null,"OBJECT_NAME":"STARLINK-2019","RCS_SIZE":"LARGE","ELEMENT_SET_NO":"999","ECCENTRICITY":"0.00014020","EPOCH":"2022-12-29T07:08:46.282560","BSTAR":"0.00003199500000","OBJECT_ID":"2021-012X","APOAPSIS":"548.221","PERIOD":"95.593","REF_FRAME":"TEME","PERIAPSIS":"546.279","EPHEMERIS_TYPE":"0","CENTER_NAME":"EARTH","MEAN_ANOMALY":"273.1770","MEAN_MOTION":"15.06388089","OBJECT_TYPE":"PAYLOAD","SEMIMAJOR_AXIS":"6925.385","INCLINATION":"53.0526","MEAN_MOTION_DOT":"0.00000195","TLE_LINE1":"1 47641U 21012X   22363.29775790  .00000195  00000-0  31995-4 0  9996","MEAN_ELEMENT_THEORY":"SGP4","RA_OF_ASC_NODE":"172.7522"},{"INCLINATION":"53.0548","MEAN_MOTION_DOT":"-0.00005787","MEAN_ELEMENT_THEORY":"SGP4","RA_OF_ASC_NODE":"262.1710","TLE_LINE1":"1 47642U 21012Y   22363.42583617 -.00005787  00000-0 -37021-3 0  9996","MEAN_MOTION":"15.06371889","MEAN_ANOMALY":"250.0185","SEMIMAJOR_AXIS":"6925.435","OBJECT_TYPE":"PAYLOAD","EPHEMERIS_TYPE":"0","CENTER_NAME":"EARTH","PERIAPSIS":"546.383","PERIOD":"95.594","REF_FRAME":"TEME","APOAPSIS":"548.216","BSTAR":"-0.00037021000000","OBJECT_ID":"2021-012Y","RCS_SIZE":"LARGE","ELEMENT_SET_NO":"999","DECAY_DATE":null,"OBJECT_NAME":"STARLINK-2020","EPOCH":"2022-12-29T10:13:12.245088","ECCENTRICITY":"0.00013230","CLASSIFICATION_TYPE":"U","ARG_OF_PERICENTER":"110.0946","FILE":"3725790","COUNTRY_CODE":"US","TIME_SYSTEM":"UTC","GP_ID":"221736339","REV_AT_EPOCH":"10426","MEAN_MOTION_DDOT":"0.0000000000000","LAUNCH_DATE":"2021-02-16","TLE_LINE2":"2 47642  53.0548 262.1710 0001323 110.0946 250.0185 15.06371889104261","SITE":"AFETR","NORAD_CAT_ID":"47642"},{"INCLINATION":"53.0540","MEAN_MOTION_DOT":"-0.00002627","RA_OF_ASC_NODE":"245.9249","MEAN_ELEMENT_THEORY":"SGP4","TLE_LINE1":"1 47643U 21012Z   22363.70551897 -.00002627  00000-0 -15758-3 0  9996","MEAN_MOTION":"15.06386082","MEAN_ANOMALY":"233.3121","SEMIMAJOR_AXIS":"6925.391","OBJECT_TYPE":"PAYLOAD","EPHEMERIS_TYPE":"0","CENTER_NAME":"EARTH","PERIAPSIS":"546.095","REF_FRAME":"TEME","PERIOD":"95.593","APOAPSIS":"548.418","BSTAR":"-0.00015758000000","OBJECT_ID":"2021-012Z","RCS_SIZE":"LARGE","ELEMENT_SET_NO":"999","DECAY_DATE":null,"OBJECT_NAME":"STARLINK-2022","EPOCH":"2022-12-29T16:55:56.839008","ECCENTRICITY":"0.00016770","CLASSIFICATION_TYPE":"U","ARG_OF_PERICENTER":"126.8022","FILE":"3725887","COUNTRY_CODE":"US","TIME_SYSTEM":"UTC","REV_AT_EPOCH":"10400","GP_ID":"221743896","MEAN_MOTION_DDOT":"0.0000000000000","LAUNCH_DATE":"2021-02-16","TLE_LINE2":"2 47643  53.0540 245.9249 0001677 126.8022 233.3121 15.06386082104009","SITE":"AFETR","NORAD_CAT_ID":"47643"},{"MEAN_MOTION_DDOT":"0.0000000000000","LAUNCH_DATE":"2021-02-16","TLE_LINE2":"2 47644  53.0557 265.5747 0001320  55.7469 304.3645 15.06388270103740","SITE":"AFETR","NORAD_CAT_ID":"47644","TIME_SYSTEM":"UTC","REV_AT_EPOCH":"10374","GP_ID":"221743103","FILE":"3725853","COUNTRY_CODE":"US","CLASSIFICATION_TYPE":"U","ARG_OF_PERICENTER":"55.7469","EPOCH":"2022-12-29T18:50:03.511104","ECCENTRICITY":"0.00013200","RCS_SIZE":"LARGE","ELEMENT_SET_NO":"999","DECAY_DATE":null,"OBJECT_NAME":"STARLINK-2026","APOAPSIS":"548.164","BSTAR":"-0.00008486100000","OBJECT_ID":"2021-012AA","PERIAPSIS":"546.335","REF_FRAME":"TEME","PERIOD":"95.593","CENTER_NAME":"EARTH","EPHEMERIS_TYPE":"0","SEMIMAJOR_AXIS":"6925.385","OBJECT_TYPE":"PAYLOAD","MEAN_MOTION":"15.06388270","MEAN_ANOMALY":"304.3645","RA_OF_ASC_NODE":"265.5747","MEAN_ELEMENT_THEORY":"SGP4","TLE_LINE1":"1 47644U 21012AA  22363.78476286 -.00001545  00000-0 -84861-4 0  9993","INCLINATION":"53.0557","MEAN_MOTION_DOT":"-0.00001545"},{"OBJECT_ID":"2021-012AB","BSTAR":"-0.00003882200000","APOAPSIS":"548.397","ECCENTRICITY":"0.00016710","EPOCH":"2022-12-29T01:49:40.914336","OBJECT_NAME":"STARLINK-2027","DECAY_DATE":null,"RCS_SIZE":"LARGE","ELEMENT_SET_NO":"999","COUNTRY_CODE":"US","FILE":"3725790","ARG_OF_PERICENTER":"67.9328","CLASSIFICATION_TYPE":"U","NORAD_CAT_ID":"47645","TLE_LINE2":"2 47645  53.0540 239.0043 0001671  67.9328 292.1838 15.06391450104547","SITE":"AFETR","LAUNCH_DATE":"2021-02-16","MEAN_MOTION_DDOT":"0.0000000000000","REV_AT_EPOCH":"10454","GP_ID":"221737591","TIME_SYSTEM":"UTC","TLE_LINE1":"1 47645U 21012AB  22363.07616799 -.00000860  00000-0 -38822-4 0  9996","MEAN_ELEMENT_THEORY":"SGP4","RA_OF_ASC_NODE":"239.0043","MEAN_MOTION_DOT":"-0.00000860","INCLINATION":"53.0540","OBJECT_TYPE":"PAYLOAD","SEMIMAJOR_AXIS":"6925.375","MEAN_ANOMALY":"292.1838","MEAN_MOTION":"15.06391450","CENTER_NAME":"EARTH","EPHEMERIS_TYPE":"0","PERIOD":"95.593","REF_FRAME":"TEME","PERIAPSIS":"546.083"}];
